THORAD AGENA D DEB      
1 04735U 70025CJ  26064.00035513  .06162855  67930-1  14397-1 0  9992
2 04735  99.5869  76.5028 0011871 174.5398 185.6006 16.01570033880581
COSMOS 886 DEB          
1 14501U 76126BN  26064.06053772  .05079275  10593+0  71290-2 0  9994
2 14501  65.5968 309.0469 0019045 200.6828 159.3583 16.12799361149933
COSMOS 1812             
1 17295U 87003A   26064.27669567  .04336969 -12478-5  60814-3 0  9998
2 17295  82.4662 200.6099 0009455 280.2072  79.8157 16.34939650143779
CZ-4 DEB                
1 20898U 90081BJ  26064.16648560  .03164816  11222-1  88888-2 0  9999
2 20898  98.0811 153.7267 0013302 288.6184  71.3645 15.96222890867431
IRIDIUM 51              
1 25262U 98018A   26064.19239928  .00731512  25019-3  13005-2 0  9994
2 25262  86.3509 282.9671 0017077 300.1111  59.8483 16.01612255487638
CZ-2D DEB               
1 31409U 05024J   26060.90543068  .00239460  23346-4  72484-3 0  9991
2 31409  97.1482 103.0739 0004089 145.2826 214.8716 15.92111318117181
ZIYUAN 3-01 (ZY 3-01)   
1 38046U 12001A   26064.18718192  .00451344  88267-4  94716-3 0  9996
2 38046  97.1555 138.8295 0002306 237.6892 122.4163 15.98945413787986
HUMSAT-D                
1 39433U 13066T   26064.00159654  .01243708  86814-3  20528-2 0  9990
2 39433  97.4823  76.7259 0007313 168.3159 191.8292 16.03274678670717
H-2A DEB                
1 43675U 18084E   26064.23946644  .01823548  23151-2  29441-2 0  9999
2 43675  98.0032 280.4038 0003548 295.9496  64.1416 16.04070772402415
SPACEBEE-7              
1 43816U 18099BL  26063.18985420  .01688633  20345-2  22288-2 0  9998
2 43816  97.4390 149.6974 0008435 272.4852  87.5464 16.07262832398333
STARLINK-1112           
1 44925U 20001M   26064.07015251  .00866461  41840-3  10135-2 0  9999
2 44925  53.0325 265.0002 0005114 277.8537  82.1915 16.08159385340581
STARLINK-1298           
1 45413U 20019BF  26064.25003471  .00221993  29915-4  61048-3 0  9997
2 45413  53.0351  76.6514 0007277   4.6957 132.3127 15.93524927  6056
STARLINK-1398           
1 45699U 20035AU  26064.25003471  .00312463  48044-4  91891-3 0  9997
2 45699  53.0369 321.9369 0003778 149.7227 196.4853 15.92202020  6040
STARLINK-1484           
1 45756U 20038AC  26064.25003471  .00375840  70245-4  76231-3 0  9991
2 45756  52.9982  79.5658 0006752  44.2198 166.9088 15.98984991  5840
STARLINK-1587           
1 46157U 20057AS  26064.25003471  .00435254  84240-4  12702-2 0  9996
2 46157  53.0323 239.0633 0003565 260.7579 194.7980 15.92301220  6034
STARLINK-1723           
1 46333U 20062J   26064.24860171  .05315760  12003-4  12947-2 0  9998
2 46333  53.0343 344.6435 0007497 222.8632 137.1826 16.28520849304369
