[{"OBJECT_NAME":"THORAD AGENA D DEB","OBJECT_ID":"1970-025CJ","EPOCH":"2026-03-05T00:00:30.683232","MEAN_MOTION":16.01570033,"ECCENTRICITY":0.0011871,"INCLINATION":99.5869,"RA_OF_ASC_NODE":76.5028,"ARG_OF_PERICENTER":174.5398,"MEAN_ANOMALY":185.6006,"EPHEMERIS_TYPE":0,"CLASSIFICATION_TYPE":"U","NORAD_CAT_ID":4735,"ELEMENT_SET_NO":999,"REV_AT_EPOCH":88058,"BSTAR":0.014397,"MEAN_MOTION_DOT":0.06162855,"MEAN_MOTION_DDOT":0.06793},{"OBJECT_NAME":"COSMOS 886 DEB","OBJECT_ID":"1976-126BN","EPOCH":"2026-03-05T01:27:10.459008","MEAN_MOTION":16.12799361,"ECCENTRICITY":0.0019045,"INCLINATION":65.5968,"RA_OF_ASC_NODE":309.0469,"ARG_OF_PERICENTER":200.6828,"MEAN_ANOMALY":159.3583,"EPHEMERIS_TYPE":0,"CLASSIFICATION_TYPE":"U","NORAD_CAT_ID":14501,"ELEMENT_SET_NO":999,"REV_AT_EPOCH":14993,"BSTAR":0.007129,"MEAN_MOTION_DOT":0.05079275,"MEAN_MOTION_DDOT":0.10593},{"OBJECT_NAME":"COSMOS 1812","OBJECT_ID":"1987-003A","EPOCH":"2026-03-05T06:38:26.505888","MEAN_MOTION":16.3493965,"ECCENTRICITY":0.0009455,"INCLINATION":82.4662,"RA_OF_ASC_NODE":200.6099,"ARG_OF_PERICENTER":280.2072,"MEAN_ANOMALY":79.8157,"EPHEMERIS_TYPE":0,"CLASSIFICATION_TYPE":"U","NORAD_CAT_ID":17295,"ELEMENT_SET_NO":999,"REV_AT_EPOCH":14377,"BSTAR":0.00060814,"MEAN_MOTION_DOT":0.04336969,"MEAN_MOTION_DDOT":-1.2478e-6},{"OBJECT_NAME":"CZ-4 DEB","OBJECT_ID":"1990-081BJ","EPOCH":"2026-03-05T03:59:44.355840","MEAN_MOTION":15.9622289,"ECCENTRICITY":0.0013302,"INCLINATION":98.0811,"RA_OF_ASC_NODE":153.7267,"ARG_OF_PERICENTER":288.6184,"MEAN_ANOMALY":71.3645,"EPHEMERIS_TYPE":0,"CLASSIFICATION_TYPE":"U","NORAD_CAT_ID":20898,"ELEMENT_SET_NO":999,"REV_AT_EPOCH":86743,"BSTAR":0.0088888,"MEAN_MOTION_DOT":0.03164816,"MEAN_MOTION_DDOT":0.011222},{"OBJECT_NAME":"IRIDIUM 51","OBJECT_ID":"1998-018A","EPOCH":"2026-03-05T04:37:03.297792","MEAN_MOTION":16.01612255,"ECCENTRICITY":0.0017077,"INCLINATION":86.3509,"RA_OF_ASC_NODE":282.9671,"ARG_OF_PERICENTER":300.1111,"MEAN_ANOMALY":59.8483,"EPHEMERIS_TYPE":0,"CLASSIFICATION_TYPE":"U","NORAD_CAT_ID":25262,"ELEMENT_SET_NO":999,"REV_AT_EPOCH":48763,"BSTAR":0.0013005,"MEAN_MOTION_DOT":0.00731512,"MEAN_MOTION_DDOT":0.00025019},{"OBJECT_NAME":"CZ-2D DEB","OBJECT_ID":"2005-024J","EPOCH":"2026-03-01T21:43:49.210752","MEAN_MOTION":15.92111318,"ECCENTRICITY":0.0004089,"INCLINATION":97.1482,"RA_OF_ASC_NODE":103.0739,"ARG_OF_PERICENTER":145.2826,"MEAN_ANOMALY":214.8716,"EPHEMERIS_TYPE":0,"CLASSIFICATION_TYPE":"U","NORAD_CAT_ID":31409,"ELEMENT_SET_NO":999,"REV_AT_EPOCH":11718,"BSTAR":0.00072484,"MEAN_MOTION_DOT":0.0023946,"MEAN_MOTION_DDOT":2.3346e-5},{"OBJECT_NAME":"ZIYUAN 3-01 (ZY 3-01)","OBJECT_ID":"2012-001A","EPOCH":"2026-03-05T04:29:32.517888","MEAN_MOTION":15.98945413,"ECCENTRICITY":0.0002306,"INCLINATION":97.1555,"RA_OF_ASC_NODE":138.8295,"ARG_OF_PERICENTER":237.6892,"MEAN_ANOMALY":122.4163,"EPHEMERIS_TYPE":0,"CLASSIFICATION_TYPE":"U","NORAD_CAT_ID":38046,"ELEMENT_SET_NO":999,"REV_AT_EPOCH":78798,"BSTAR":0.00094716,"MEAN_MOTION_DOT":0.00451344,"MEAN_MOTION_DDOT":8.8267e-5},{"OBJECT_NAME":"HUMSAT-D","OBJECT_ID":"2013-066T","EPOCH":"2026-03-05T00:02:17.941056","MEAN_MOTION":16.03274678,"ECCENTRICITY":0.0007313,"INCLINATION":97.4823,"RA_OF_ASC_NODE":76.7259,"ARG_OF_PERICENTER":168.3159,"MEAN_ANOMALY":191.8292,"EPHEMERIS_TYPE":0,"CLASSIFICATION_TYPE":"U","NORAD_CAT_ID":39433,"ELEMENT_SET_NO":999,"REV_AT_EPOCH":67071,"BSTAR":0.0020528,"MEAN_MOTION_DOT":0.01243708,"MEAN_MOTION_DDOT":0.00086814},{"OBJECT_NAME":"H-2A DEB","OBJECT_ID":"2018-084E","EPOCH":"2026-03-05T05:44:49.900416","MEAN_MOTION":16.04070772,"ECCENTRICITY":0.0003548,"INCLINATION":98.0032,"RA_OF_ASC_NODE":280.4038,"ARG_OF_PERICENTER":295.9496,"MEAN_ANOMALY":64.1416,"EPHEMERIS_TYPE":0,"CLASSIFICATION_TYPE":"U","NORAD_CAT_ID":43675,"ELEMENT_SET_NO":999,"REV_AT_EPOCH":40241,"BSTAR":0.0029441,"MEAN_MOTION_DOT":0.01823548,"MEAN_MOTION_DDOT":0.0023151},{"OBJECT_NAME":"SPACEBEE-7","OBJECT_ID":"2018-099BL","EPOCH":"2026-03-04T04:33:23.402880","MEAN_MOTION":16.07262832,"ECCENTRICITY":0.00084354,"INCLINATION":97.439,"RA_OF_ASC_NODE":149.6974,"ARG_OF_PERICENTER":272.4852,"MEAN_ANOMALY":87.5464,"EPHEMERIS_TYPE":0,"CLASSIFICATION_TYPE":"U","NORAD_CAT_ID":43816,"ELEMENT_SET_NO":999,"REV_AT_EPOCH":39833,"BSTAR":0.0022287651,"MEAN_MOTION_DOT":0.01688633,"MEAN_MOTION_DDOT":0.0020344783},{"OBJECT_NAME":"STARLINK-1112","OBJECT_ID":"2020-001M","EPOCH":"2026-03-05T01:41:01.176864","MEAN_MOTION":16.08159385,"ECCENTRICITY":0.0005114,"INCLINATION":53.0325,"RA_OF_ASC_NODE":265.0002,"ARG_OF_PERICENTER":277.8537,"MEAN_ANOMALY":82.1915,"EPHEMERIS_TYPE":0,"CLASSIFICATION_TYPE":"U","NORAD_CAT_ID":44925,"ELEMENT_SET_NO":999,"REV_AT_EPOCH":34058,"BSTAR":0.0010135,"MEAN_MOTION_DOT":0.00866461,"MEAN_MOTION_DDOT":0.0004184},{"OBJECT_NAME":"STARLINK-1298","OBJECT_ID":"2020-019BF","EPOCH":"2026-03-05T06:00:02.998944","MEAN_MOTION":15.93524927,"ECCENTRICITY":0.0007277,"INCLINATION":53.0351,"RA_OF_ASC_NODE":76.6514,"ARG_OF_PERICENTER":4.6957,"MEAN_ANOMALY":132.3127,"EPHEMERIS_TYPE":0,"CLASSIFICATION_TYPE":"U","NORAD_CAT_ID":45413,"ELEMENT_SET_NO":999,"REV_AT_EPOCH":605,"BSTAR":0.00061048,"MEAN_MOTION_DOT":0.00221993,"MEAN_MOTION_DDOT":2.9915e-5},{"OBJECT_NAME":"STARLINK-1398","OBJECT_ID":"2020-035AU","EPOCH":"2026-03-05T06:00:02.998944","MEAN_MOTION":15.9220202,"ECCENTRICITY":0.0003778,"INCLINATION":53.0369,"RA_OF_ASC_NODE":321.9369,"ARG_OF_PERICENTER":149.7227,"MEAN_ANOMALY":196.4853,"EPHEMERIS_TYPE":0,"CLASSIFICATION_TYPE":"U","NORAD_CAT_ID":45699,"ELEMENT_SET_NO":999,"REV_AT_EPOCH":604,"BSTAR":0.00091891,"MEAN_MOTION_DOT":0.00312463,"MEAN_MOTION_DDOT":4.8044e-5},{"OBJECT_NAME":"STARLINK-1484","OBJECT_ID":"2020-038AC","EPOCH":"2026-03-05T06:00:02.998944","MEAN_MOTION":15.98984991,"ECCENTRICITY":0.0006752,"INCLINATION":52.9982,"RA_OF_ASC_NODE":79.5658,"ARG_OF_PERICENTER":44.2198,"MEAN_ANOMALY":166.9088,"EPHEMERIS_TYPE":0,"CLASSIFICATION_TYPE":"U","NORAD_CAT_ID":45756,"ELEMENT_SET_NO":999,"REV_AT_EPOCH":584,"BSTAR":0.00076231,"MEAN_MOTION_DOT":0.0037584,"MEAN_MOTION_DDOT":7.0245e-5},{"OBJECT_NAME":"STARLINK-1587","OBJECT_ID":"2020-057AS","EPOCH":"2026-03-05T06:00:02.998944","MEAN_MOTION":15.9230122,"ECCENTRICITY":0.0003565,"INCLINATION":53.0323,"RA_OF_ASC_NODE":239.0633,"ARG_OF_PERICENTER":260.7579,"MEAN_ANOMALY":194.798,"EPHEMERIS_TYPE":0,"CLASSIFICATION_TYPE":"U","NORAD_CAT_ID":46157,"ELEMENT_SET_NO":999,"REV_AT_EPOCH":603,"BSTAR":0.0012702,"MEAN_MOTION_DOT":0.00435254,"MEAN_MOTION_DDOT":8.424e-5},{"OBJECT_NAME":"STARLINK-1723","OBJECT_ID":"2020-062J","EPOCH":"2026-03-05T05:57:59.187744","MEAN_MOTION":16.28520849,"ECCENTRICITY":0.0007497,"INCLINATION":53.0343,"RA_OF_ASC_NODE":344.6435,"ARG_OF_PERICENTER":222.8632,"MEAN_ANOMALY":137.1826,"EPHEMERIS_TYPE":0,"CLASSIFICATION_TYPE":"U","NORAD_CAT_ID":46333,"ELEMENT_SET_NO":999,"REV_AT_EPOCH":30436,"BSTAR":0.0012947,"MEAN_MOTION_DOT":0.0531576,"MEAN_MOTION_DDOT":1.2003e-5}]
